ORBCOMM FM33            
1 25983U 99065D   24190.17797941  .00001235  00000+0  45185-3 0  9993
2 25983  45.0277 192.0461 0006375 135.4928 224.6434 14.37910762286584
ORBCOMM FM36            
1 25984U 99065E   24189.60757042  .00001407  00000+0  52990-3 0  9991
2 25984  45.0403 281.2385 0002897 326.2783  33.7881 14.35836034285442
ORBCOMM FM35            
1 25985U 99065F   24189.45920345  .00001068  00000+0  41811-3 0  9996
2 25985  45.0405 284.7903 0002539 149.9657 210.1336 14.35346431285221
ORBCOMM FM34            
1 25986U 99065G   24189.43080369  .00001102  00000+0  42992-3 0  9998
2 25986  45.0399 285.4700 0001581  49.5090 310.5895 14.35322773285339
ORBCOMM FM38            
1 33060U 08031A   24189.85151994  .00002604  00000+0  38633-3 0  9997
2 33060  48.4399 152.3105 0005776   0.8977 359.1946 14.77915373863746
ORBCOMM FM41            
1 33061U 08031B   24189.46388554  .00002508  00000+0  37564-3 0  9994
2 33061  48.4429 160.9066 0005085 345.2889 170.2645 14.77635023863191
ORBCOMM FM29            
1 33062U 08031C   24190.19076432  .00002439  00000+0  36646-3 0  9999
2 33062  48.4382 165.4985 0006938 347.0577 127.5248 14.77586489863603
ORBCOMM FM39            
1 33063U 08031D   24190.17544580  .00001749  00000+0  27761-3 0  9993
2 33063  48.4388 186.5432 0008025 322.6794  37.3561 14.76536658863327
