<?xml version="1.0" encoding="UTF-8"?>
<ndm xmlns:xsi="http://www.w3.org/2001/XMLSchema-instance" xsi:noNamespaceSchemaLocation="https://sanaregistry.org/r/ndmxml_unqualified/ndmxml-2.0.0-master-2.0.xsd">
<omm id="CCSDS_OMM_VERS" version="2.0">
<header><CREATION_DATE/><ORIGINATOR/></header><body><segment><metadata><OBJECT_NAME>ORBCOMM FM33</OBJECT_NAME><OBJECT_ID>1999-065D</OBJECT_ID><CENTER_NAME>EARTH</CENTER_NAME><REF_FRAME>TEME</REF_FRAME><TIME_SYSTEM>UTC</TIME_SYSTEM><MEAN_ELEMENT_THEORY>SGP4</MEAN_ELEMENT_THEORY></metadata><data><meanElements><EPOCH>2024-07-08T04:16:17.421024</EPOCH><MEAN_MOTION>14.37910762</MEAN_MOTION><ECCENTRICITY>.0006375</ECCENTRICITY><INCLINATION>45.0277</INCLINATION><RA_OF_ASC_NODE>192.0461</RA_OF_ASC_NODE><ARG_OF_PERICENTER>135.4928</ARG_OF_PERICENTER><MEAN_ANOMALY>224.6434</MEAN_ANOMALY></meanElements><tleParameters><EPHEMERIS_TYPE>0</EPHEMERIS_TYPE><CLASSIFICATION_TYPE>U</CLASSIFICATION_TYPE><NORAD_CAT_ID>25983</NORAD_CAT_ID><ELEMENT_SET_NO>999</ELEMENT_SET_NO><REV_AT_EPOCH>28658</REV_AT_EPOCH><BSTAR>.45185E-3</BSTAR><MEAN_MOTION_DOT>.1235E-4</MEAN_MOTION_DOT><MEAN_MOTION_DDOT>0</MEAN_MOTION_DDOT></tleParameters></data></segment></body></omm>
<omm id="CCSDS_OMM_VERS" version="2.0">
<header><CREATION_DATE/><ORIGINATOR/></header><body><segment><metadata><OBJECT_NAME>ORBCOMM FM36</OBJECT_NAME><OBJECT_ID>1999-065E</OBJECT_ID><CENTER_NAME>EARTH</CENTER_NAME><REF_FRAME>TEME</REF_FRAME><TIME_SYSTEM>UTC</TIME_SYSTEM><MEAN_ELEMENT_THEORY>SGP4</MEAN_ELEMENT_THEORY></metadata><data><meanElements><EPOCH>2024-07-07T14:34:54.084288</EPOCH><MEAN_MOTION>14.35836034</MEAN_MOTION><ECCENTRICITY>.0002897</ECCENTRICITY><INCLINATION>45.0403</INCLINATION><RA_OF_ASC_NODE>281.2385</RA_OF_ASC_NODE><ARG_OF_PERICENTER>326.2783</ARG_OF_PERICENTER><MEAN_ANOMALY>33.7881</MEAN_ANOMALY></meanElements><tleParameters><EPHEMERIS_TYPE>0</EPHEMERIS_TYPE><CLASSIFICATION_TYPE>U</CLASSIFICATION_TYPE><NORAD_CAT_ID>25984</NORAD_CAT_ID><ELEMENT_SET_NO>999</ELEMENT_SET_NO><REV_AT_EPOCH>28544</REV_AT_EPOCH><BSTAR>.5299E-3</BSTAR><MEAN_MOTION_DOT>.1407E-4</MEAN_MOTION_DOT><MEAN_MOTION_DDOT>0</MEAN_MOTION_DDOT></tleParameters></data></segment></body></omm>
<omm id="CCSDS_OMM_VERS" version="2.0">
<header><CREATION_DATE/><ORIGINATOR/></header><body><segment><metadata><OBJECT_NAME>ORBCOMM FM35</OBJECT_NAME><OBJECT_ID>1999-065F</OBJECT_ID><CENTER_NAME>EARTH</CENTER_NAME><REF_FRAME>TEME</REF_FRAME><TIME_SYSTEM>UTC</TIME_SYSTEM><MEAN_ELEMENT_THEORY>SGP4</MEAN_ELEMENT_THEORY></metadata><data><meanElements><EPOCH>2024-07-07T11:01:15.178080</EPOCH><MEAN_MOTION>14.35346431</MEAN_MOTION><ECCENTRICITY>.0002539</ECCENTRICITY><INCLINATION>45.0405</INCLINATION><RA_OF_ASC_NODE>284.7903</RA_OF_ASC_NODE><ARG_OF_PERICENTER>149.9657</ARG_OF_PERICENTER><MEAN_ANOMALY>210.1336</MEAN_ANOMALY></meanElements><tleParameters><EPHEMERIS_TYPE>0</EPHEMERIS_TYPE><CLASSIFICATION_TYPE>U</CLASSIFICATION_TYPE><NORAD_CAT_ID>25985</NORAD_CAT_ID><ELEMENT_SET_NO>999</ELEMENT_SET_NO><REV_AT_EPOCH>28522</REV_AT_EPOCH><BSTAR>.41811E-3</BSTAR><MEAN_MOTION_DOT>.1068E-4</MEAN_MOTION_DOT><MEAN_MOTION_DDOT>0</MEAN_MOTION_DDOT></tleParameters></data></segment></body></omm>
<omm id="CCSDS_OMM_VERS" version="2.0">
<header><CREATION_DATE/><ORIGINATOR/></header><body><segment><metadata><OBJECT_NAME>ORBCOMM FM34</OBJECT_NAME><OBJECT_ID>1999-065G</OBJECT_ID><CENTER_NAME>EARTH</CENTER_NAME><REF_FRAME>TEME</REF_FRAME><TIME_SYSTEM>UTC</TIME_SYSTEM><MEAN_ELEMENT_THEORY>SGP4</MEAN_ELEMENT_THEORY></metadata><data><meanElements><EPOCH>2024-07-07T10:20:21.438816</EPOCH><MEAN_MOTION>14.35322773</MEAN_MOTION><ECCENTRICITY>.0001581</ECCENTRICITY><INCLINATION>45.0399</INCLINATION><RA_OF_ASC_NODE>285.4700</RA_OF_ASC_NODE><ARG_OF_PERICENTER>49.5090</ARG_OF_PERICENTER><MEAN_ANOMALY>310.5895</MEAN_ANOMALY></meanElements><tleParameters><EPHEMERIS_TYPE>0</EPHEMERIS_TYPE><CLASSIFICATION_TYPE>U</CLASSIFICATION_TYPE><NORAD_CAT_ID>25986</NORAD_CAT_ID><ELEMENT_SET_NO>999</ELEMENT_SET_NO><REV_AT_EPOCH>28533</REV_AT_EPOCH><BSTAR>.42992E-3</BSTAR><MEAN_MOTION_DOT>.1102E-4</MEAN_MOTION_DOT><MEAN_MOTION_DDOT>0</MEAN_MOTION_DDOT></tleParameters></data></segment></body></omm>
<omm id="CCSDS_OMM_VERS" version="2.0">
<header><CREATION_DATE/><ORIGINATOR/></header><body><segment><metadata><OBJECT_NAME>ORBCOMM FM38</OBJECT_NAME><OBJECT_ID>2008-031A</OBJECT_ID><CENTER_NAME>EARTH</CENTER_NAME><REF_FRAME>TEME</REF_FRAME><TIME_SYSTEM>UTC</TIME_SYSTEM><MEAN_ELEMENT_THEORY>SGP4</MEAN_ELEMENT_THEORY></metadata><data><meanElements><EPOCH>2024-07-07T20:26:11.322816</EPOCH><MEAN_MOTION>14.77915373</MEAN_MOTION><ECCENTRICITY>.0005776</ECCENTRICITY><INCLINATION>48.4399</INCLINATION><RA_OF_ASC_NODE>152.3105</RA_OF_ASC_NODE><ARG_OF_PERICENTER>0.8977</ARG_OF_PERICENTER><MEAN_ANOMALY>359.1946</MEAN_ANOMALY></meanElements><tleParameters><EPHEMERIS_TYPE>0</EPHEMERIS_TYPE><CLASSIFICATION_TYPE>U</CLASSIFICATION_TYPE><NORAD_CAT_ID>33060</NORAD_CAT_ID><ELEMENT_SET_NO>999</ELEMENT_SET_NO><REV_AT_EPOCH>86374</REV_AT_EPOCH><BSTAR>.38633E-3</BSTAR><MEAN_MOTION_DOT>.2604E-4</MEAN_MOTION_DOT><MEAN_MOTION_DDOT>0</MEAN_MOTION_DDOT></tleParameters></data></segment></body></omm>
<omm id="CCSDS_OMM_VERS" version="2.0">
<header><CREATION_DATE/><ORIGINATOR/></header><body><segment><metadata><OBJECT_NAME>ORBCOMM FM41</OBJECT_NAME><OBJECT_ID>2008-031B</OBJECT_ID><CENTER_NAME>EARTH</CENTER_NAME><REF_FRAME>TEME</REF_FRAME><TIME_SYSTEM>UTC</TIME_SYSTEM><MEAN_ELEMENT_THEORY>SGP4</MEAN_ELEMENT_THEORY></metadata><data><meanElements><EPOCH>2024-07-07T11:07:59.710656</EPOCH><MEAN_MOTION>14.77635023</MEAN_MOTION><ECCENTRICITY>.0005085</ECCENTRICITY><INCLINATION>48.4429</INCLINATION><RA_OF_ASC_NODE>160.9066</RA_OF_ASC_NODE><ARG_OF_PERICENTER>345.2889</ARG_OF_PERICENTER><MEAN_ANOMALY>170.2645</MEAN_ANOMALY></meanElements><tleParameters><EPHEMERIS_TYPE>0</EPHEMERIS_TYPE><CLASSIFICATION_TYPE>U</CLASSIFICATION_TYPE><NORAD_CAT_ID>33061</NORAD_CAT_ID><ELEMENT_SET_NO>999</ELEMENT_SET_NO><REV_AT_EPOCH>86319</REV_AT_EPOCH><BSTAR>.37564E-3</BSTAR><MEAN_MOTION_DOT>.2508E-4</MEAN_MOTION_DOT><MEAN_MOTION_DDOT>0</MEAN_MOTION_DDOT></tleParameters></data></segment></body></omm>
<omm id="CCSDS_OMM_VERS" version="2.0">
<header><CREATION_DATE/><ORIGINATOR/></header><body><segment><metadata><OBJECT_NAME>ORBCOMM FM29</OBJECT_NAME><OBJECT_ID>2008-031C</OBJECT_ID><CENTER_NAME>EARTH</CENTER_NAME><REF_FRAME>TEME</REF_FRAME><TIME_SYSTEM>UTC</TIME_SYSTEM><MEAN_ELEMENT_THEORY>SGP4</MEAN_ELEMENT_THEORY></metadata><data><meanElements><EPOCH>2024-07-08T04:34:42.037248</EPOCH><MEAN_MOTION>14.77586489</MEAN_MOTION><ECCENTRICITY>.0006938</ECCENTRICITY><INCLINATION>48.4382</INCLINATION><RA_OF_ASC_NODE>165.4985</RA_OF_ASC_NODE><ARG_OF_PERICENTER>347.0577</ARG_OF_PERICENTER><MEAN_ANOMALY>127.5248</MEAN_ANOMALY></meanElements><tleParameters><EPHEMERIS_TYPE>0</EPHEMERIS_TYPE><CLASSIFICATION_TYPE>U</CLASSIFICATION_TYPE><NORAD_CAT_ID>33062</NORAD_CAT_ID><ELEMENT_SET_NO>999</ELEMENT_SET_NO><REV_AT_EPOCH>86360</REV_AT_EPOCH><BSTAR>.36646E-3</BSTAR><MEAN_MOTION_DOT>.2439E-4</MEAN_MOTION_DOT><MEAN_MOTION_DDOT>0</MEAN_MOTION_DDOT></tleParameters></data></segment></body></omm>
<omm id="CCSDS_OMM_VERS" version="2.0">
<header><CREATION_DATE/><ORIGINATOR/></header><body><segment><metadata><OBJECT_NAME>ORBCOMM FM39</OBJECT_NAME><OBJECT_ID>2008-031D</OBJECT_ID><CENTER_NAME>EARTH</CENTER_NAME><REF_FRAME>TEME</REF_FRAME><TIME_SYSTEM>UTC</TIME_SYSTEM><MEAN_ELEMENT_THEORY>SGP4</MEAN_ELEMENT_THEORY></metadata><data><meanElements><EPOCH>2024-07-08T04:12:38.517120</EPOCH><MEAN_MOTION>14.76536658</MEAN_MOTION><ECCENTRICITY>.0008025</ECCENTRICITY><INCLINATION>48.4388</INCLINATION><RA_OF_ASC_NODE>186.5432</RA_OF_ASC_NODE><ARG_OF_PERICENTER>322.6794</ARG_OF_PERICENTER><MEAN_ANOMALY>37.3561</MEAN_ANOMALY></meanElements><tleParameters><EPHEMERIS_TYPE>0</EPHEMERIS_TYPE><CLASSIFICATION_TYPE>U</CLASSIFICATION_TYPE><NORAD_CAT_ID>33063</NORAD_CAT_ID><ELEMENT_SET_NO>999</ELEMENT_SET_NO><REV_AT_EPOCH>86332</REV_AT_EPOCH><BSTAR>.27761E-3</BSTAR><MEAN_MOTION_DOT>.1749E-4</MEAN_MOTION_DOT><MEAN_MOTION_DDOT>0</MEAN_MOTION_DDOT></tleParameters></data></segment></body></omm>

</ndm>
